[{"OBJECT_NAME":"GEESAT-4 05","OBJECT_ID":"2025-170E","EPOCH":"2026-03-09T22:10:53.623200","MEAN_MOTION":15.15083101,"ECCENTRICITY":0.00102728,"INCLINATION":50.0002,"RA_OF_ASC_NODE":229.6714,"ARG_OF_PERICENTER":163.1129,"MEAN_ANOMALY":197.0167,"EPHEMERIS_TYPE":0,"CLASSIFICATION_TYPE":"U","NORAD_CAT_ID":65123,"ELEMENT_SET_NO":999,"REV_AT_EPOCH":3229,"BSTAR":0.00052791785,"MEAN_MOTION_DOT":9.735e-5,"MEAN_MOTION_DDOT":0},{"OBJECT_NAME":"OTTER","OBJECT_ID":"2025-276Q","EPOCH":"2026-03-09T17:25:56.068896","MEAN_MOTION":15.18022658,"ECCENTRICITY":0.00054717,"INCLINATION":97.4276,"RA_OF_ASC_NODE":143.8857,"ARG_OF_PERICENTER":0.7152,"MEAN_ANOMALY":359.4088,"EPHEMERIS_TYPE":0,"CLASSIFICATION_TYPE":"U","NORAD_CAT_ID":66680,"ELEMENT_SET_NO":999,"REV_AT_EPOCH":1531,"BSTAR":0.00035224337,"MEAN_MOTION_DOT":7.104e-5,"MEAN_MOTION_DDOT":0}]
